      2.10          N: GNSS NAV DATA                        RINEX VERSION / TYPE
fic2rin                                 03/03/2019 00:19:18 PGM / RUN BY / DATE
                                                            END OF HEADER
28 19  3  2 14  0  0.0 7.656197994947e-04 7.958078640513e-13 0.000000000000e+00
    7.100000000000e+01 6.446875000000e+01 3.595149752418e-09-2.015224106927e+00
    3.434717655182e-06 1.922118128277e-02 9.911134839058e-06 5.153707565308e+03
    5.688000000000e+05 2.849847078323e-07 2.919469793601e+00 3.147870302200e-07
    9.833193332315e-01 2.000000000000e+02-1.471355744558e+00-7.368878371934e-09
   -2.246522148093e-10 1.000000000000e+00 2.042000000000e+03 0.000000000000e+00
    2.400000000000e+00 0.000000000000e+00-1.117587089539e-08 7.100000000000e+01
    5.616000000000e+05 4.000000000000e+00
 2 19  3  2 13 59 44.0-1.532281748950e-04-9.777068044059e-12 0.000000000000e+00
    2.800000000000e+01-8.190625000000e+01 4.739840290516e-09 1.563604647850e+00
   -4.516914486885e-06 1.891883846838e-02 4.028901457787e-06 5.153662033081e+03
    5.687840000000e+05-1.955777406693e-07-1.420386549304e+00-4.731118679047e-07
    9.533771408304e-01 2.985000000000e+02-1.766900283198e+00-8.395349700013e-09
   -6.357407668690e-11 1.000000000000e+00 2.042000000000e+03 0.000000000000e+00
    2.400000000000e+00 0.000000000000e+00-2.048909664154e-08 2.800000000000e+01
    5.617800000000e+05 4.000000000000e+00
10 19  3  2 13 59 44.0 1.060478389263e-04-8.185452315956e-12 0.000000000000e+00
    0.000000000000e+00-6.006250000000e+01 4.288392914492e-09-7.926550884889e-01
   -3.045424818993e-06 4.386912216432e-03 1.062266528606e-05 5.153668085098e+03
    5.687840000000e+05 8.195638656616e-08-3.140006487588e-01 3.725290298462e-08
    9.628635911106e-01 1.737812500000e+02-2.736032863025e+00-7.811396804603e-09
    2.739399821284e-10 1.000000000000e+00 2.042000000000e+03 0.000000000000e+00
    2.400000000000e+00 0.000000000000e+00 1.862645149231e-09 0.000000000000e+00
    5.625000000000e+05 4.000000000000e+00
10 19  3  2 15 59 44.0 1.059891656041e-04-8.185452315956e-12 0.000000000000e+00
    2.100000000000e+01-5.550000000000e+01 4.276963866998e-09 2.574662907673e-01
   -2.844259142876e-06 4.387081135064e-03 1.078471541405e-05 5.153668260574e+03
    5.759840000000e+05 7.450580596924e-09-3.140570852125e-01 1.117587089539e-07
    9.628653027247e-01 1.731875000000e+02-2.735971250767e+00-7.854612890440e-09
    2.546534644818e-10 1.000000000000e+00 2.042000000000e+03 0.000000000000e+00
    2.400000000000e+00 0.000000000000e+00 1.862645149231e-09 2.100000000000e+01
    5.688000000000e+05 4.000000000000e+00
 2 19  3  2 16  0  0.0-1.532984897494e-04-9.777068044059e-12 0.000000000000e+00
    2.900000000000e+01-7.562500000000e+01 4.528045754138e-09 2.616026338512e+00
   -3.946945071220e-06 1.891805604100e-02 3.065913915634e-06 5.153665782928e+03
    5.760000000000e+05 1.583248376846e-07-1.420444627152e+00-1.601874828339e-07
    9.533781619472e-01 3.124375000000e+02-1.766801498191e+00-7.983903990219e-09
   -1.450060400836e-10 1.000000000000e+00 2.042000000000e+03 0.000000000000e+00
    2.400000000000e+00 0.000000000000e+00-2.048909664154e-08 2.900000000000e+01
    5.688000000000e+05 4.000000000000e+00
 1 19  3  2 16  0  0.0-1.730318181217e-04-7.275957614183e-12 0.000000000000e+00
    8.100000000000e+01-8.743750000000e+01 4.196960534538e-09 2.312303417793e+00
   -4.509463906288e-06 8.437386713922e-03 3.796070814133e-06 5.153661722183e+03
    5.760000000000e+05-8.009374141693e-08-1.353466258537e+00-1.117587089539e-07
    9.742815921104e-01 3.150000000000e+02 6.846042619783e-01-8.099265938365e-09
   -1.182192100189e-10 1.000000000000e+00 2.042000000000e+03 0.000000000000e+00
    2.400000000000e+00 0.000000000000e+00 5.587935447693e-09 8.100000000000e+01
    5.688000000000e+05 4.000000000000e+00
 3 19  3  2 16  0  0.0 1.850961707532e-04 1.364242052659e-12 0.000000000000e+00
    3.100000000000e+01-6.431250000000e+01 4.243033882249e-09 1.329210709590e+00
   -3.498047590256e-06 1.898541231640e-03 1.051090657711e-05 5.153576892853e+03
    5.760000000000e+05 2.607703208923e-08-3.107806183116e-01 7.450580596924e-08
    9.628276676942e-01 1.753437500000e+02 6.116083773381e-01-7.847469735756e-09
    2.314382117591e-10 1.000000000000e+00 2.042000000000e+03 0.000000000000e+00
    2.400000000000e+00 0.000000000000e+00 2.328306436539e-09 3.100000000000e+01
    5.688000000000e+05 4.000000000000e+00
14 19  3  2 16  0  0.0-8.980976417661e-05 1.364242052659e-12 0.000000000000e+00
    7.000000000000e+00 2.518750000000e+01 4.822343727116e-09-2.036481326273e+00
    1.370906829834e-06 1.020819449332e-02 6.396323442459e-06 5.153668703079e+03
    5.760000000000e+05 1.601874828339e-07 8.134285632504e-01 1.490116119385e-08
    9.606804755350e-01 2.530937500000e+02-1.948596857669e+00-7.930330330090e-09
    4.053740283126e-10 1.000000000000e+00 2.042000000000e+03 0.000000000000e+00
    2.400000000000e+00 0.000000000000e+00-9.778887033463e-09 7.000000000000e+00
    5.688000000000e+05 4.000000000000e+00
 7 19  3  2 16  0  0.0 2.261949703097e-05-7.275957614183e-12 0.000000000000e+00
    2.900000000000e+01-1.612500000000e+01 5.020566269594e-09 1.695914246116e+00
   -7.878988981247e-07 1.226716535166e-02 6.945803761482e-06 5.153602098465e+03
    5.760000000000e+05-2.849847078323e-07 1.798112911695e+00 9.126961231232e-08
    9.557461201479e-01 2.488125000000e+02-2.475519117868e+00-8.303917320059e-09
   -4.739483132782e-10 1.000000000000e+00 2.042000000000e+03 0.000000000000e+00
    2.400000000000e+00 0.000000000000e+00-1.117587089539e-08 2.900000000000e+01
    5.688000000000e+05 4.000000000000e+00
 8 19  3  2 16  0  0.0-1.346752978861e-04-1.364242052659e-12 0.000000000000e+00
    7.900000000000e+01 7.131250000000e+01 4.324108687912e-09-1.499974369142e+00
    3.686174750328e-06 4.324669716880e-03 4.244968295097e-06 5.153702394485e+03
    5.760000000000e+05-9.872019290924e-08-2.420093227534e+00-3.725290298462e-09
    9.702519915757e-01 3.055937500000e+02-3.253280029657e-01-8.173911904812e-09
    2.814402945465e-10 1.000000000000e+00 2.042000000000e+03 0.000000000000e+00
    2.400000000000e+00 0.000000000000e+00 5.122274160385e-09 7.900000000000e+01
    5.688000000000e+05 4.000000000000e+00
 5 19  3  2 16  0  0.0 1.152511686087e-06 0.000000000000e+00 0.000000000000e+00
    8.100000000000e+01-5.728125000000e+01 4.534117435619e-09-1.026397077307e+00
   -2.847984433174e-06 5.542715778574e-03 1.024641096592e-05 5.153643918991e+03
    5.760000000000e+05 1.043081283569e-07-3.364265304525e-01 3.166496753693e-08
    9.496911066066e-01 1.718437500000e+02 7.107983017281e-01-7.999976088258e-09
    2.046513816944e-10 1.000000000000e+00 2.042000000000e+03 0.000000000000e+00
    2.400000000000e+00 0.000000000000e+00-1.117587089539e-08 8.100000000000e+01
    5.688000000000e+05 4.000000000000e+00
 6 19  3  2 16  0  0.0 2.642725594342e-04-8.526512829121e-12 0.000000000000e+00
    5.400000000000e+01-7.940625000000e+01 4.198032007741e-09 2.525901543995e+00
   -4.043802618980e-06 1.585994265042e-03 3.995373845100e-06 5.153540142059e+03
    5.760000000000e+05-1.862645149231e-08-1.361752318701e+00-1.303851604462e-08
    9.739458275416e-01 3.088437500000e+02-1.182548746816e+00-8.059978587603e-09
   -1.132190017402e-10 1.000000000000e+00 2.042000000000e+03 0.000000000000e+00
    2.400000000000e+00 0.000000000000e+00 4.656612873077e-09 5.400000000000e+01
    5.688000000000e+05 4.000000000000e+00
 4 19  3  2 16  0  0.0 1.254309900105e-04 8.071765478235e-12 0.000000000000e+00
    1.920000000000e+02 2.875000000000e+01 4.885203488334e-09 1.479532400395e+00
    1.534819602966e-06 3.287389408797e-04 7.020309567451e-06 5.153564798355e+03
    5.760000000000e+05-7.450580596924e-09 7.658744171265e-01-3.725290298462e-08
    9.600182490935e-01 2.468437500000e+02-1.475201656710e+00-8.099265938365e-09
    4.103742365913e-10 1.000000000000e+00 2.042000000000e+03 0.000000000000e+00
    3.400000000000e+00 6.300000000000e+01-8.847564458847e-09 7.040000000000e+02
    5.688000000000e+05 4.000000000000e+00
24 19  3  2 16  0  0.0-6.285728886724e-05-5.684341886081e-13 0.000000000000e+00
    1.800000000000e+01-1.328125000000e+01 5.266647948455e-09 2.601432794404e+00
   -7.990747690201e-07 8.222174714319e-03 6.312504410744e-06 5.153723392487e+03
    5.760000000000e+05-1.117587089539e-07 1.733585447272e+00-7.450580596924e-08
    9.388790696818e-01 2.460625000000e+02 5.986247438548e-01-8.239271770169e-09
   -3.771585673111e-10 1.000000000000e+00 2.042000000000e+03 0.000000000000e+00
    3.400000000000e+00 0.000000000000e+00 2.793967723846e-09 1.800000000000e+01
    5.688000000000e+05 4.000000000000e+00
22 19  3  2 16  0  0.0-6.561283953488e-04-7.844391802792e-12 0.000000000000e+00
    4.600000000000e+01-7.334375000000e+01 4.958777981578e-09-2.560663413635e+00
   -3.797933459282e-06 7.230106159113e-03 9.965151548386e-06 5.153572507858e+03
    5.760000000000e+05 7.636845111847e-08-3.806441056863e-01 1.154839992523e-07
    9.271760937030e-01 1.625625000000e+02-1.411301700758e+00-8.079265105250e-09
    2.667968274445e-10 1.000000000000e+00 2.042000000000e+03 0.000000000000e+00
    2.400000000000e+00 0.000000000000e+00-1.816079020500e-08 4.600000000000e+01
    5.688000000000e+05 4.000000000000e+00
16 19  3  2 16  0  0.0-2.267304807901e-05-2.614797267597e-12 0.000000000000e+00
    2.500000000000e+01 7.387500000000e+01 3.740512950236e-09-9.411159065351e-01
    3.812834620476e-06 1.065744692460e-02 1.016259193420e-05 5.153787103653e+03
    5.760000000000e+05 2.551823854446e-07 2.915400724999e+00 5.029141902924e-08
    9.843869269582e-01 1.958437500000e+02 5.460769575886e-01-7.656390347961e-09
   -1.978653847446e-10 1.000000000000e+00 2.042000000000e+03 0.000000000000e+00
    2.400000000000e+00 0.000000000000e+00-1.071020960808e-08 2.500000000000e+01
    5.688000000000e+05 4.000000000000e+00
